[{"OBJECT_NAME":"STARLINK-36744","OBJECT_ID":"2026-039B","EPOCH":"2026-03-07T14:00:01.000224","MEAN_MOTION":15.90452329,"ECCENTRICITY":0.00017713,"INCLINATION":42.9975,"RA_OF_ASC_NODE":67.9349,"ARG_OF_PERICENTER":266.1025,"MEAN_ANOMALY":332.988,"EPHEMERIS_TYPE":0,"CLASSIFICATION_TYPE":"U","NORAD_CAT_ID":67987,"ELEMENT_SET_NO":999,"REV_AT_EPOCH":253,"BSTAR":-0.0051978317,"MEAN_MOTION_DOT":-0.01441866,"MEAN_MOTION_DDOT":0},{"OBJECT_NAME":"STARLINK-36734","OBJECT_ID":"2026-039C","EPOCH":"2026-03-07T14:00:01.000224","MEAN_MOTION":15.90603254,"ECCENTRICITY":0.0001716,"INCLINATION":42.9977,"RA_OF_ASC_NODE":67.9274,"ARG_OF_PERICENTER":267.1292,"MEAN_ANOMALY":334.8895,"EPHEMERIS_TYPE":0,"CLASSIFICATION_TYPE":"U","NORAD_CAT_ID":67988,"ELEMENT_SET_NO":999,"REV_AT_EPOCH":253,"BSTAR":-0.0051742123,"MEAN_MOTION_DOT":-0.01445942,"MEAN_MOTION_DDOT":0},{"OBJECT_NAME":"STARLINK-36957","OBJECT_ID":"2026-039D","EPOCH":"2026-03-07T14:00:01.000224","MEAN_MOTION":15.90764764,"ECCENTRICITY":0.00017626,"INCLINATION":42.9974,"RA_OF_ASC_NODE":67.9206,"ARG_OF_PERICENTER":266.3743,"MEAN_ANOMALY":338.1729,"EPHEMERIS_TYPE":0,"CLASSIFICATION_TYPE":"U","NORAD_CAT_ID":67989,"ELEMENT_SET_NO":999,"REV_AT_EPOCH":253,"BSTAR":-0.0050961994,"MEAN_MOTION_DOT":-0.01437504,"MEAN_MOTION_DDOT":0},{"OBJECT_NAME":"STARLINK-36951","OBJECT_ID":"2026-039E","EPOCH":"2026-03-07T14:00:01.000224","MEAN_MOTION":15.90913139,"ECCENTRICITY":0.00017596,"INCLINATION":42.9974,"RA_OF_ASC_NODE":67.9134,"ARG_OF_PERICENTER":264.1394,"MEAN_ANOMALY":343.2713,"EPHEMERIS_TYPE":0,"CLASSIFICATION_TYPE":"U","NORAD_CAT_ID":67990,"ELEMENT_SET_NO":999,"REV_AT_EPOCH":253,"BSTAR":-0.0050582103,"MEAN_MOTION_DOT":-0.01437827,"MEAN_MOTION_DDOT":0},{"OBJECT_NAME":"STARLINK-36941","OBJECT_ID":"2026-039F","EPOCH":"2026-03-07T14:00:01.000224","MEAN_MOTION":15.91074565,"ECCENTRICITY":0.00017288,"INCLINATION":42.9974,"RA_OF_ASC_NODE":67.9072,"ARG_OF_PERICENTER":264.6774,"MEAN_ANOMALY":345.068,"EPHEMERIS_TYPE":0,"CLASSIFICATION_TYPE":"U","NORAD_CAT_ID":67991,"ELEMENT_SET_NO":999,"REV_AT_EPOCH":253,"BSTAR":-0.0049582308,"MEAN_MOTION_DOT":-0.01423464,"MEAN_MOTION_DDOT":0},{"OBJECT_NAME":"STARLINK-36950","OBJECT_ID":"2026-039G","EPOCH":"2026-03-07T14:00:01.000224","MEAN_MOTION":15.91223232,"ECCENTRICITY":0.00016989,"INCLINATION":42.9974,"RA_OF_ASC_NODE":67.9003,"ARG_OF_PERICENTER":267.4216,"MEAN_ANOMALY":345.091,"EPHEMERIS_TYPE":0,"CLASSIFICATION_TYPE":"U","NORAD_CAT_ID":67992,"ELEMENT_SET_NO":999,"REV_AT_EPOCH":253,"BSTAR":-0.0049334091,"MEAN_MOTION_DOT":-0.01623325,"MEAN_MOTION_DDOT":0.00072827465},{"OBJECT_NAME":"STARLINK-36975","OBJECT_ID":"2026-039H","EPOCH":"2026-03-07T14:00:01.000224","MEAN_MOTION":15.91372875,"ECCENTRICITY":0.00016516,"INCLINATION":42.9973,"RA_OF_ASC_NODE":67.8937,"ARG_OF_PERICENTER":269.1124,"MEAN_ANOMALY":346.0263,"EPHEMERIS_TYPE":0,"CLASSIFICATION_TYPE":"U","NORAD_CAT_ID":67993,"ELEMENT_SET_NO":999,"REV_AT_EPOCH":253,"BSTAR":-0.0048630179,"MEAN_MOTION_DOT":-0.01612692,"MEAN_MOTION_DDOT":0.00072055433},{"OBJECT_NAME":"STARLINK-36993","OBJECT_ID":"2026-039J","EPOCH":"2026-03-07T14:00:01.000224","MEAN_MOTION":15.91518963,"ECCENTRICITY":0.00017728,"INCLINATION":42.9974,"RA_OF_ASC_NODE":67.8869,"ARG_OF_PERICENTER":267.5945,"MEAN_ANOMALY":350.3643,"EPHEMERIS_TYPE":0,"CLASSIFICATION_TYPE":"U","NORAD_CAT_ID":67994,"ELEMENT_SET_NO":999,"REV_AT_EPOCH":253,"BSTAR":-0.0048425836,"MEAN_MOTION_DOT":-0.01618056,"MEAN_MOTION_DDOT":0.00072599228},{"OBJECT_NAME":"STARLINK-36968","OBJECT_ID":"2026-039K","EPOCH":"2026-03-07T14:00:01.000224","MEAN_MOTION":15.91747966,"ECCENTRICITY":0.00017705,"INCLINATION":42.9975,"RA_OF_ASC_NODE":67.8697,"ARG_OF_PERICENTER":265.6254,"MEAN_ANOMALY":359.0079,"EPHEMERIS_TYPE":0,"CLASSIFICATION_TYPE":"U","NORAD_CAT_ID":67995,"ELEMENT_SET_NO":999,"REV_AT_EPOCH":253,"BSTAR":-0.0048273581,"MEAN_MOTION_DOT":-0.01632045,"MEAN_MOTION_DDOT":0.00073922288},{"OBJECT_NAME":"STARLINK-36979","OBJECT_ID":"2026-039L","EPOCH":"2026-03-07T14:00:01.000224","MEAN_MOTION":15.91596115,"ECCENTRICITY":0.00017736,"INCLINATION":42.9972,"RA_OF_ASC_NODE":67.8763,"ARG_OF_PERICENTER":266.925,"MEAN_ANOMALY":355.0436,"EPHEMERIS_TYPE":0,"CLASSIFICATION_TYPE":"U","NORAD_CAT_ID":67996,"ELEMENT_SET_NO":999,"REV_AT_EPOCH":253,"BSTAR":-0.0048497471,"MEAN_MOTION_DOT":-0.01626825,"MEAN_MOTION_DDOT":0.0007337974},{"OBJECT_NAME":"STARLINK-36994","OBJECT_ID":"2026-039M","EPOCH":"2026-03-07T14:00:01.000224","MEAN_MOTION":15.92025742,"ECCENTRICITY":0.00014794,"INCLINATION":42.9974,"RA_OF_ASC_NODE":67.8548,"ARG_OF_PERICENTER":266.669,"MEAN_ANOMALY":3.68,"EPHEMERIS_TYPE":0,"CLASSIFICATION_TYPE":"U","NORAD_CAT_ID":67997,"ELEMENT_SET_NO":999,"REV_AT_EPOCH":253,"BSTAR":-0.0047742279,"MEAN_MOTION_DOT":-0.01637409,"MEAN_MOTION_DDOT":0.00074570913},{"OBJECT_NAME":"STARLINK-36988","OBJECT_ID":"2026-039N","EPOCH":"2026-03-07T14:00:01.000224","MEAN_MOTION":15.91875702,"ECCENTRICITY":0.00017951,"INCLINATION":42.9974,"RA_OF_ASC_NODE":67.862,"ARG_OF_PERICENTER":267.1403,"MEAN_ANOMALY":0.5181,"EPHEMERIS_TYPE":0,"CLASSIFICATION_TYPE":"U","NORAD_CAT_ID":67998,"ELEMENT_SET_NO":999,"REV_AT_EPOCH":253,"BSTAR":-0.0047777947,"MEAN_MOTION_DOT":-0.01626119,"MEAN_MOTION_DDOT":0.00073519631},{"OBJECT_NAME":"STARLINK-36926","OBJECT_ID":"2026-039P","EPOCH":"2026-03-07T14:00:01.000224","MEAN_MOTION":15.92165746,"ECCENTRICITY":0.00017535,"INCLINATION":42.9974,"RA_OF_ASC_NODE":67.8482,"ARG_OF_PERICENTER":268.5524,"MEAN_ANOMALY":4.5769,"EPHEMERIS_TYPE":0,"CLASSIFICATION_TYPE":"U","NORAD_CAT_ID":67999,"ELEMENT_SET_NO":999,"REV_AT_EPOCH":253,"BSTAR":-0.004724103,"MEAN_MOTION_DOT":-0.01632213,"MEAN_MOTION_DDOT":0.00074236547},{"OBJECT_NAME":"STARLINK-36931","OBJECT_ID":"2026-039Q","EPOCH":"2026-03-07T14:00:01.000224","MEAN_MOTION":15.92320227,"ECCENTRICITY":0.0001755,"INCLINATION":42.9976,"RA_OF_ASC_NODE":67.8424,"ARG_OF_PERICENTER":266.6691,"MEAN_ANOMALY":8.7802,"EPHEMERIS_TYPE":0,"CLASSIFICATION_TYPE":"U","NORAD_CAT_ID":68000,"ELEMENT_SET_NO":999,"REV_AT_EPOCH":253,"BSTAR":-0.0046822897,"MEAN_MOTION_DOT":-0.01630878,"MEAN_MOTION_DDOT":0.00074236358},{"OBJECT_NAME":"STARLINK-36903","OBJECT_ID":"2026-039R","EPOCH":"2026-03-07T14:00:01.000224","MEAN_MOTION":15.92452794,"ECCENTRICITY":0.0001798,"INCLINATION":42.9976,"RA_OF_ASC_NODE":67.8353,"ARG_OF_PERICENTER":267.7725,"MEAN_ANOMALY":10.5055,"EPHEMERIS_TYPE":0,"CLASSIFICATION_TYPE":"U","NORAD_CAT_ID":68001,"ELEMENT_SET_NO":999,"REV_AT_EPOCH":253,"BSTAR":-0.0046156587,"MEAN_MOTION_DOT":-0.0161901,"MEAN_MOTION_DDOT":0.00073339353},{"OBJECT_NAME":"STARLINK-36898","OBJECT_ID":"2026-039S","EPOCH":"2026-03-07T14:00:01.000224","MEAN_MOTION":15.92726809,"ECCENTRICITY":0.00018175,"INCLINATION":42.9975,"RA_OF_ASC_NODE":67.8213,"ARG_OF_PERICENTER":269.32,"MEAN_ANOMALY":14.3367,"EPHEMERIS_TYPE":0,"CLASSIFICATION_TYPE":"U","NORAD_CAT_ID":68002,"ELEMENT_SET_NO":999,"REV_AT_EPOCH":253,"BSTAR":-0.0045294205,"MEAN_MOTION_DOT":-0.01611832,"MEAN_MOTION_DDOT":0.00072936859}]
